

(defpackage small-body-name
  (:use #:cl)
  (:export
   #:parse-small-body-name
   #:fuzzy-match-common-name
   #:find-matching-common-names
   #:get-body-by-id 
   #:iterate-over-small-bodies))

(in-package small-body-name)

#|

some cases we address

(1) Ceres  --> '("(1)" "Ceres" :asteroid)
1   Ceres  --> '("(1)" "Ceres" :asteroid)
Ceres      --> '("(1)" "Ceres" :asteroid)
1_Ceres    --> '("(1)" "Ceres" :asteroid)
1Ceres     --> '("(1)" "Ceres" :asteroid)  ;; note that 2Panda won't work because
                                          ;; it could be 2P Anda

;; common names are parsed but only if not degenerate
(small-body-name:parse-small-body-name "West-Kohoutek-Ikemura")
           --> '("76P" "West-Kohoutek-Ikemura" :comet)
Halley     --> '(nil "Halley"  :degenerate) ;; both asteroid and comet exist

C/2010 A2  --> '("C/2010 A2" nil :comet)
C/2010 A2  Linear --> '("C/2010 A2" "Linear" :comet)
C2010A2          --> '("C/2010 A2" nil :comet)
 (C may be be any one of CPDXA)

238P              --> '("238P" nil :comet)
238P/Read         --> '("238P" "Read" :comet)

2I/Borisov        --> '("2I" "Borisov" :interstellar)

;; MPC provisional designations
2006VW139         --> '("2006 VW139" nil :asteroid)
2006 VW139        --> '("2006 VW139" nil :asteroid)
;; but if if overlaps with a comet (ie, a re-designated known comet)
2020 WJ5          --> '("C/2020 WJ5" "Lemmon" :comet)

;; MPC confirmation designations
eg C04AKE1, A10ceJ9 

;; MPC packed designations
J95F13B             -->  '("1995 FB13" nil :asteroid)
CK17K020            -->  '("C/2017 K2" "PANSTARRS" :comet)
K17K020             -->  '("C/2017 K2" "PANSTARRS" :comet)

;; MISSING (see http://www.minorplanetcenter.net/iau/info/OldDesDoc.html)
Survey designations, and old-style provisional designations


|#
 

(defun %space-trim (string)
  (declare (type string string))
  (string-trim #(#\space #\tab #\cr #\lf) string))

(defun %space-quote-trim (string) ;; for reading csv fields
  (declare (type string string))
  (string-trim #(#\space #\tab #\cr #\lf #\") string))

;; safe string ref
(defun %cref (string n)
  (declare (type string string)
	   (type (unsigned-byte 28) n))
  (when (> (length string) n)
    (aref string n)))

;; NIL if string is empty
(defun %notemptystring (string)
  (declare (type string string))
  (if (plusp (length string))
      string
      nil))
    
(defun %remove-enclosing-parens (name)
  (declare (type string name))
  (string-left-trim
   '(#\space #\tab #\( )
   (string-right-trim
    '(#\space #\tab #\) )
    name)))

;; is STR made up of digits 0..9?   it can also be (nnn) if :allow-parens set
(defun %numstring-p (str &key (allow-parens nil))
  (declare (type string str)
	   (optimize speed))  
  (loop with nmax of-type fixnum = (if (zerop (length str))
				       (return nil) ;; bail on empty string
				       (1- (length str)))
	with ndigits of-type fixnum = 0
	with nparens of-type fixnum = 0 
	with first-paren = (char= (aref str 0) #\( )
	with last-paren = (char= (aref str nmax) #\) )
	with two-parens = (and first-paren last-paren)
	with one-paren = (and (not two-parens) (or first-paren last-paren))
	  initially (when one-paren (return nil)) ;; bad - just one paren
		    (when (and (not allow-parens) two-parens) ;; bad - parens not allowed
		      (return nil))
	for i of-type fixnum from (if first-paren 1 0) to (if last-paren (1- nmax) nmax)
	for c = (aref str i)
	when (not (digit-char-p c))
	  do (return nil)
	do (incf ndigits)
	finally (if (plusp ndigits)
		    (return t)
		    (return nil))))

;;;;;;;;;;;;;;;;;;;;;;;;;;;;;;;;;;;;;;;;;;;;;;;;;;;;;;;;;;;;;;;;
;; load numbered comets from file - EQUALP so case insensitive
(defvar *small-body-names-loaded* nil)

(defvar *numbered-comet-name-hash* (make-hash-table :test 'equalp))
(defvar *periodic-comet-name-hash* (make-hash-table :test 'equalp))
(defvar *all-comet-els-name-hash*      (make-hash-table :test 'equalp))

;; has KEY=1 and KEY="Ceres" for VAL=("1" "CERES")
(defvar *asteroid-name-hash* (make-hash-table :test 'equalp)) 

;; a hash of all things tied to a common name, where there
;; may be dupilicates
;; KEY="Kopff" and VALUE='(("(1631)" "Kopff" :asteroid)
;;                         ("22P"  "Kopff" :comet))
(defvar *common-name-hash*  (make-hash-table :test 'equalp))

;; KEY="1P" VALUE=("1P" "Halley" :comet)  or 
;; KEY="1"  VALUE=("1"  "Ceres"  :asteroid)
(defvar *all-id-hash* (make-hash-table :test 'equalp))

(defun get-body-by-id (id)
  "Retrieve a body by ID, which can be a number (for an asteroid), or
a formal comet designation."
  (let ((hash *all-id-hash*))
    (cond
      ;; a number, so express as "(123)"
      ((and (integerp id) (plusp id))
       (gethash (format nil "(~D)" id) hash))
      ;; a string like "123", so insert parens
      ((%numstring-p id :allow-parens nil)
       (gethash (format nil "(~D)" id) hash))
      ;; any other string, including "(123)"
      (t
       (gethash id hash)))))




(defun load-numbered-comet-names ()
  (let ((comet-name-file
	  (asdf:system-relative-pathname  
	   (asdf:find-system "small-body-name")
	   "data/numbered_comets.txt")))
    (clrhash *numbered-comet-name-hash*)
    (with-open-file (s comet-name-file)
      (loop for line = (read-line s nil nil)
	    until (not line)
	    for nslash = (position #\/ line)
	    when nslash ;; some comets don't have a common name
	      do (let* ((name (subseq line 0 nslash))
			(%desc (subseq line (1+ nslash)))
			(desc (if (equalp %desc "") nil %desc)))
		   (setf (gethash name *numbered-comet-name-hash*) desc))))))

(defun load-periodic-comet-names ()
  (let ((comet-name-file
	  (asdf:system-relative-pathname
	   (asdf:find-system "small-body-name")
	   "data/periodic_comets.csv")))
    (clrhash *periodic-comet-name-hash*)
    (with-open-file (s comet-name-file)
      (loop for line = (read-line s nil nil)
	    until (not line)
	    for ncomma
	      = (or (position #\, line)
		    (error "Invalid line ~A in periodic_comets.csv" line))
	    for name = (%space-quote-trim (subseq line 0 ncomma))
	    for %desc = (%space-quote-trim (subseq line (1+ ncomma)))
	    for desc  = (if (equalp %desc "") nil %desc)
	    do (setf (gethash name *periodic-comet-name-hash*) desc)))))


#|

AllCometEls.txt  has data like
    CK23K010  2023 09  8.9095  2.034502  0.969092  338.0035  223.8755  137.9720  20230225  14.1  4.0  C/2023 K1 (ATLAS)                                        MPEC 2023-M14
    PK23M010  2023 12 14.4356  2.825807  0.588049   79.7030  216.8657   12.2896  20230225  13.5  4.0  P/2023 M1 (PANSTARRS)                                    MPEC 2023-MA9
0001I         2017 09  9.4886  0.255240  1.199252  241.6845   24.5997  122.6778  20170904  23.0  2.0  1I/`Oumuamua                                             MPC107687
0001P         1986 02 26.1811  0.602947  0.966266  112.3598   59.4332   62.2400  20230225   4.0  6.0  1P/Halley                                                 98, 1083
--------------------------------------------------------------------------------------------------------------------------------------------------------------------------
0         1         2         3         4         5         6         7         8         8        10        11        12        13        14        15        16
01234567890123456789012345678901234567890123456789012345678901234567890123456789012345678901234567890123456789012345678901234567890123456789012345678901234567890123456789
|#
(defun load-all-comet-els-names ()
  (clrhash *all-comet-els-name-hash*)
  (let ((comet-name-file
	  (asdf:system-relative-pathname
	   (asdf:find-system "small-body-name")
	   "data/AllCometEls.txt")))
     (clrhash *all-comet-els-name-hash*)
     (labels ((parse-periodic (str)
		(let* ((nlp (position #\( str))
		       (nrp (position #\) str))
		       (id (string-trim " " (subseq str 0 nlp)))
		       (common-name
			 (when (and nlp nrp)
			   (subseq str (1+ nlp) nrp))))
		  (values id common-name)))
	      (parse-numbered (str)
		(let* ((n/ (position #\/ str))
		       (id (string-trim " " (subseq str 0 n/)))
		       (common-name
			 (when n/
			   (string-trim " " (subseq str (1+ n/))))))
		  (values id common-name)))
	      (parse-any (type str)
		(cond ((eq type :periodic) (parse-periodic str))
		      ((eq type :numbered) (parse-numbered str)))))
     (with-open-file (s comet-name-file)
       (loop for line = (read-line s nil nil)
	     until (not line)
	     for nmax = (length line)
	     for fullname = (string-trim " " (subseq line 102 (min 158 nmax)))
	     for type = (if (eql (aref line 0) #\space)
			    :periodic
			    :numbered)
	     do (multiple-value-bind (name desc)
		    (parse-any type fullname)
		  (setf (gethash name *all-comet-els-name-hash*) desc)))))))
	     

 
(defun load-asteroid-names ()
  (clrhash *asteroid-name-hash*)
  (let ((ast-name-file
	  (asdf:system-relative-pathname
	   (asdf:find-system "small-body-name")
	   "data/asteroid_names.csv")))
    (clrhash *asteroid-name-hash*)
    (with-open-file (s ast-name-file)
      (loop for line = (read-line s nil nil)
	    until (not line)
	    for ncomma
	      = (or (position #\, line)
		    (error "Invalid line ~A in asteroid_names.csv" line))
	    for name = (concatenate 'string "(" (%space-quote-trim (subseq line 0 ncomma)) ")")
	    for desc = (%space-quote-trim (subseq line (1+ ncomma)))
	    for val = (list name desc)
	    do (setf (gethash name *asteroid-name-hash*) val)
	       (setf (gethash desc *asteroid-name-hash*) val)))))

(defun build-common-name-and-id-hash ()
  (clrhash *common-name-hash*)
  (clrhash *all-id-hash* )
  (loop for ast-key being the hash-key of *asteroid-name-hash*
	for ast-pair being the hash-value of *asteroid-name-hash*
	for is-numerical = (%numstring-p ast-key :allow-parens t)
	for body = (list (first ast-pair) (second ast-pair) :asteroid)
	;; for *common-name-hash*, count only key,val= "Ceres",("(1)" "Ceres") and not  "(1)",("(1)" "Ceres") 
	when (not is-numerical)
